0 CZ-4 DEB
1 35380U 03049G   13282.99799535  .00005822  00000-0  10086-2 0  4312
2 35380 098.0831 354.0552 0067171 131.1729 229.5455 14.67176279393186
0 CZ-4 DEB
1 35380U 03049G   13284.02097437  .00005948  00000-0  10298-2 0  4325
2 35380 098.0829 355.0621 0067279 128.4049 232.3304 14.67190201393337
0 CZ-4 DEB
1 35380U 03049G   13285.38493859  .00006026  00000-0  10434-2 0  4334
2 35380 098.0818 356.4043 0066723 123.9187 236.8552 14.67207956393536
0 CZ-4 DEB
1 35380U 03049G   13287.43085205  .00006420  00000-0  11096-2 0  4348
2 35380 098.0830 358.4269 0067077 118.3864 242.5629 14.67240891393832
0 CZ-4 DEB
1 35380U 03049G   13288.99932593  .00006812  00000-0  11733-2 0  4355
2 35380 098.0902 359.9898 0069474 112.8497 248.0558 14.67266969394062
0 CZ-4 DEB
1 35380U 03049G   13290.02223239  .00007110  00000-0  12256-2 0  4366
2 35380 098.0805 000.9755 0067973 107.4983 253.3860 14.67286325394211
0 CZ-4 DEB
1 35380U 03049G   13290.43139213  .00007625  00000-0  13137-2 0  4370
2 35380 098.0784 001.3718 0067571 109.4032 251.5370 14.67298510394273
0 CZ-4 DEB
1 35380U 03049G   13291.99981261  .00007953  00000-0  13700-2 0  4381
2 35380 098.0766 002.9109 0066698 104.7351 256.1723 14.67327184394504
0 CZ-4 DEB
1 35380U 03049G   13293.02267462  .00008146  00000-0  14024-2 0  4393
2 35380 098.0789 003.9213 0066771 101.6838 259.2027 14.67346868394651
0 CZ-4 DEB
1 35380U 03049G   13295.00019319  .00008315  00000-0  14300-2 0  4406
2 35380 098.0789 005.8729 0066875 095.5064 265.3961 14.67381409394948
